[
    {
        "Altitude(m)": 624790.8214843064,
        "Argument of Periapsis(deg)": 0.0,
        "Eccentricity": 0.0,
        "Inclination(deg)": 60.0,
        "Latitude(deg)": -59.14719569459199,
        "Longitude(deg)": -23.965229554897746,
        "Mean Anomaly(deg)": -81.81819999999999,
        "RAAN(deg)": 150.0,
        "Satellite Name": "Test1 677",
        "Satellite Number": 677,
        "Semi-Major Axis(m)": 6980739.136638005,
        "Time(s)": 0
    },
    {
        "Altitude(m)": 624737.4759867548,
        "Argument of Periapsis(deg)": 0.00010418945913296404,
        "Eccentricity": 0.0,
        "Inclination(deg)": 60.0,
        "Latitude(deg)": -58.99464889955031,
        "Longitude(deg)": -22.845725945206457,
        "Mean Anomaly(deg)": -81.19809385453813,
        "RAAN(deg)": 149.99957995086027,
        "Satellite Name": "Test1 677",
        "Satellite Number": 677,
        "Semi-Major Axis(m)": 6980739.136638005,
        "Time(s)": 10
    }
]